GSAT0101 (PRN E11)      
1 37846U 11060A   20330.84956222 -.00000094  00000-0  00000-0 0  9996
2 37846  56.7261  36.8553 0001916 302.7784  57.2454  1.70475430 56521
GSAT0102 (PRN E12)      
1 37847U 11060B   20330.31949354 -.00000096  00000-0  00000+0 0  9998
2 37847  56.7262  36.8693 0003933 290.3842 150.4746  1.70475555 56647
GSAT0103 (PRN E19)      
1 38857U 12055A   20330.89141736  .00000091  00000-0  00000-0 0  9991
2 38857  55.0042 157.3379 0001071 233.6942 126.3529  1.70473892 50567
GSAT0104 (PRN E20)      
1 38858U 12055B   20331.99898323  .00000094  00000-0  00000+0 0  9997
2 38858  55.0053 157.3068 0000411 125.8897 234.1699  1.70473834 50532
GSAT0201 (PRN E18)      
1 40128U 14050A   20330.02389489 -.00000105  00000-0  00000-0 0  9993
2 40128  50.5397 354.9693 1655341 104.6361 274.2782  1.85519580 40650
GSAT0202 (PRN E14)      
1 40129U 14050B   20331.36504088 -.00000103  00000-0  00000+0 0  9993
2 40129  50.5739 353.9582 1652830 105.4921 273.3561  1.85520332 42810
GSAT0203 (PRN E26)      
1 40544U 15017A   20332.39045587 -.00000088  00000-0  00000+0 0  9998
2 40544  56.5205  36.9243 0005035 242.1976 117.7988  1.70475289 35296
GSAT0204 (PRN E22)      
1 40545U 15017B   20329.23849963 -.00000099  00000-0  00000+0 0  9990
2 40545  56.5254  37.0277 0003657 211.9464 148.0695  1.70475349 35248
GSAT0205 (PRN E24)      
1 40889U 15045A   20331.24023009 -.00000048  00000-0  00000+0 0  9995
2 40889  56.0298 277.6451 0004896 351.9536   8.0172  1.70474697 32426
GSAT0206 (PRN E30)      
1 40890U 15045B   20331.45976367 -.00000047  00000-0  00000-0 0  9994
2 40890  56.0287 277.6354 0003591 334.5626  25.3983  1.70474730 32459
GSAT0209 (PRN E09)      
1 41174U 15079A   20331.04695580  .00000091  00000-0  00000+0 0  9994
2 41174  55.0193 157.0326 0002720 344.6737  15.3744  1.70473370 30763
GSAT0208 (PRN E08)      
1 41175U 15079B   20330.68009809  .00000090  00000-0  00000-0 0  9997
2 41175  55.0177 157.0421 0002146 357.8599   2.1955  1.70473402 30760
GSAT0211 (PRN E02)      
1 41549U 16030A   20331.97435875 -.00000045  00000-0  00000+0 0  9999
2 41549  56.1711 277.4946 0004975 314.7988  45.1393  1.70474491 28079
GSAT0210 (PRN E01)      
1 41550U 16030B   20330.50748136 -.00000049  00000-0  00000+0 0  9990
2 41550  56.1723 277.5363 0004348 290.8190  69.1140  1.70474443 28041
GSAT0207 (PRN E07)      
1 41859U 16069A   20330.75315091  .00000089  00000-0  00000+0 0  9994
2 41859  54.6777 157.3631 0002073 324.4195  35.6236  1.70473337 25031
GSAT0212 (PRN E03)      
1 41860U 16069B   20330.60660156  .00000089  00000-0  00000-0 0  9996
2 41860  54.6751 157.3659 0002385  13.5169 346.5465  1.70473347 25059
GSAT0213 (PRN E04)      
1 41861U 16069C   20331.55890124  .00000092  00000-0  00000+0 0  9995
2 41861  54.6776 157.3435 0001035 269.3406  90.7042  1.70473442 25072
GSAT0214 (PRN E05)      
1 41862U 16069D   20330.53280868  .00000088  00000-0  00000-0 0  9997
2 41862  54.6758 157.3673 0000326 315.8913  44.1630  1.70473395 25049
GSAT0215 (PRN E21)      
1 43055U 17079A   20331.02267572 -.00000048  00000-0  00000-0 0  9994
2 43055  56.1470 277.3615 0003640 288.4729  71.4666  1.70473642 18391
GSAT0216 (PRN E25)      
1 43056U 17079B   20331.31532073 -.00000048  00000-0  00000+0 0  9997
2 43056  56.1474 277.3532 0005444 284.5435  75.3749  1.70473781 18387
GSAT0217 (PRN E27)      
1 43057U 17079C   20330.94881788 -.00000049  00000-0  00000+0 0  9997
2 43057  56.1455 277.3638 0005160 294.8578  65.0677  1.70473764 18399
GSAT0218 (PRN E31)      
1 43058U 17079D   20330.58223490 -.00000049  00000-0  00000+0 0  9998
2 43058  56.1460 277.3713 0005836 280.3633  79.5504  1.70473739 18382
GSAT0221 (PRN E15)      
1 43564U 18060A   20331.65456282 -.00000090  00000-0  00000-0 0  9994
2 43564  56.9078  36.6141 0005332 258.4032 101.5824  1.70476387 14589
GSAT0222 (PRN E33)      
1 43565U 18060B   20332.46099597 -.00000087  00000-0  00000+0 0  9992
2 43565  56.9092  36.5916 0004905 264.4698  95.5229  1.70476418 14648
GSAT0219 (PRN E36)      
1 43566U 18060C   20330.33504171 -.00000096  00000-0  00000-0 0  9997
2 43566  56.9084  36.6515 0004665 258.2668 101.7221  1.70476221 14584
GSAT0220 (PRN E13)      
1 43567U 18060D   20332.31468709 -.00000087  00000-0  00000+0 0  9993
2 43567  56.9094  36.5979 0004765 260.3581  99.6362  1.70476396 14593
